KUIPER-00053            
1 64513U 25134P   25255.91668981 -.01443466  00000+0 -46489-1 0  9992
2 64513  51.8779 297.4682 0002603  56.0737 186.3515 15.34812622  4743
KUIPER-00054            
1 64514U 25134Q   25255.42263526  .00023197  00000+0  61925-3 0  9991
2 64514  51.8758 299.9102 0005632  38.4228 321.7159 15.37995562 13690
KUIPER-00055            
1 64515U 25134R   25255.84513744  .00022258  00000+0  58526-3 0  9998
2 64515  51.8781 297.5075 0002729  26.8232 333.2896 15.38498429 13765
KUIPER-00056            
1 64516U 25134S   25255.91668981 -.01359116  00000+0 -47901-1 0  9993
2 64516  51.8774 297.8421 0007094  35.5414  29.8150 15.31743554  1308
KUIPER-00057            
1 64517U 25134T   25255.91668981 -.00314225  00000+0 -18768-1 0  9994
2 64517  51.8914 300.4020 0011474  42.0092 169.9628 15.12102582  5784
KUIPER-00058            
1 64518U 25134U   25255.91668981 -.01150174  00000+0 -47023-1 0  9993
2 64518  51.8753 298.3703 0006998  47.8227 123.1129 15.26949704  5347
KUIPER-00059            
1 64519U 25134V   25255.91668981 -.00275715  00000+0 -82710-2 0  9995
2 64519  51.8788 297.2509 0002943  19.4414 338.2906 15.35037308  5336
KUIPER-00060            
1 64520U 25134W   25255.91668981 -.01015619  00000+0 -31743-1 0  9992
2 64520  51.8782 297.3205 0003196   6.8466 308.0044 15.35199624  4746
